{
  "norad_id": 66684,
  "name": "MICE-1",
  "history": [
    {
      "epoch": "2026-04-14T16:10:29.436384Z",
      "apogee_km": 513.1001598981184,
      "perigee_km": 506.1889598809248,
      "latitude_deg": 1.2502351739044222e-05,
      "longitude_deg": 93.90475692100827,
      "height_km": 516.002735836289,
      "semi_major_axis_km": 6887.781559889521,
      "eccentricity": 0.0005017,
      "inclination_deg": 97.4295,
      "raan_deg": 179.3744,
      "arg_perigee_deg": 199.003,
      "mean_anomaly_deg": 161.1018,
      "mean_motion_rev_day": 15.18740988
    },
    {
      "epoch": "2026-04-15T17:28:30.241056Z",
      "apogee_km": 513.1191003498689,
      "perigee_km": 506.1459224965047,
      "latitude_deg": 1.9796731072331794e-05,
      "longitude_deg": 74.39876186554996,
      "height_km": 516.0937025846379,
      "semi_major_axis_km": 6887.7695114231865,
      "eccentricity": 0.0005062,
      "inclination_deg": 97.4294,
      "raan_deg": 180.4108,
      "arg_perigee_deg": 194.8142,
      "mean_anomaly_deg": 165.2945,
      "mean_motion_rev_day": 15.18744973
    },
    {
      "epoch": "2026-04-16T10:52:08.189184Z",
      "apogee_km": 513.1587288794217,
      "perigee_km": 506.0877542154494,
      "latitude_deg": -7.718475994395095e-05,
      "longitude_deg": 173.4887176009462,
      "height_km": 516.1703282617939,
      "semi_major_axis_km": 6887.760241547436,
      "eccentricity": 0.0005133,
      "inclination_deg": 97.4294,
      "raan_deg": 181.1232,
      "arg_perigee_deg": 192.1075,
      "mean_anomaly_deg": 168.0036,
      "mean_motion_rev_day": 15.18748039
    },
    {
      "epoch": "2026-04-17T16:54:46.207008Z",
      "apogee_km": 513.2269652421955,
      "perigee_km": 505.9860182641851,
      "latitude_deg": -7.365684852509779e-05,
      "longitude_deg": 82.82705251672378,
      "height_km": 516.2858650416935,
      "semi_major_axis_km": 6887.74349175319,
      "eccentricity": 0.00052564,
      "inclination_deg": 97.4294,
      "raan_deg": 182.3538,
      "arg_perigee_deg": 187.4846,
      "mean_anomaly_deg": 172.631,
      "mean_motion_rev_day": 15.18753579
    },
    {
      "epoch": "2026-04-18T03:58:53.815296Z",
      "apogee_km": 513.2528203469419,
      "perigee_km": 505.9504398513118,
      "latitude_deg": -1.0631732326077506e-05,
      "longitude_deg": -83.2058351612522,
      "height_km": 516.3238381745398,
      "semi_major_axis_km": 6887.738630099127,
      "eccentricity": 0.0005301,
      "inclination_deg": 97.4293,
      "raan_deg": 182.8072,
      "arg_perigee_deg": 185.7739,
      "mean_anomaly_deg": 174.3435,
      "mean_motion_rev_day": 15.18755187
    },
    {
      "epoch": "2026-04-19T11:36:23.663808Z",
      "apogee_km": 513.3274231891282,
      "perigee_km": 505.8280793679369,
      "latitude_deg": -2.150489902147496e-05,
      "longitude_deg": 162.4163059623257,
      "height_km": 516.4155867039541,
      "semi_major_axis_km": 6887.714751278532,
      "eccentricity": 0.0005444,
      "inclination_deg": 97.429,
      "raan_deg": 184.1025,
      "arg_perigee_deg": 181.1992,
      "mean_anomaly_deg": 178.923,
      "mean_motion_rev_day": 15.18763085
    },
    {
      "epoch": "2026-04-20T11:19:30.693792Z",
      "apogee_km": 513.3853374988385,
      "perigee_km": 505.7446719109794,
      "latitude_deg": 3.6482902991373936e-05,
      "longitude_deg": 166.63441606239425,
      "height_km": 516.4715267664709,
      "semi_major_axis_km": 6887.702004704909,
      "eccentricity": 0.00055466,
      "inclination_deg": 97.4287,
      "raan_deg": 185.074,
      "arg_perigee_deg": 177.9869,
      "mean_anomaly_deg": 182.1389,
      "mean_motion_rev_day": 15.18767301
    },
    {
      "epoch": "2026-04-21T18:56:59.388000Z",
      "apogee_km": 513.4474192453954,
      "perigee_km": 505.6271538604442,
      "latitude_deg": -3.388503954965722e-05,
      "longitude_deg": 52.26138504854794,
      "height_km": 516.5106390402124,
      "semi_major_axis_km": 6887.6742865529195,
      "eccentricity": 0.0005677,
      "inclination_deg": 97.4285,
      "raan_deg": 186.3693,
      "arg_perigee_deg": 173.558,
      "mean_anomaly_deg": 186.5728,
      "mean_motion_rev_day": 15.18776469
    },
    {
      "epoch": "2026-04-22T18:40:05.604960Z",
      "apogee_km": 513.50363221113,
      "perigee_km": 505.540121017988,
      "latitude_deg": 5.568129051692298e-05,
      "longitude_deg": 56.48298718104992,
      "height_km": 516.532567328566,
      "semi_major_axis_km": 6887.658876614559,
      "eccentricity": 0.0005781,
      "inclination_deg": 97.4285,
      "raan_deg": 187.3409,
      "arg_perigee_deg": 170.1733,
      "mean_anomaly_deg": 189.9616,
      "mean_motion_rev_day": 15.18781566
    },
    {
      "epoch": "2026-04-23T10:28:49.576224Z",
      "apogee_km": 513.5380026041548,
      "perigee_km": 505.48097149653313,
      "latitude_deg": 3.530261044878405e-05,
      "longitude_deg": 179.29809034392983,
      "height_km": 516.5370935061827,
      "semi_major_axis_km": 6887.646487050343,
      "eccentricity": 0.00058489,
      "inclination_deg": 97.4285,
      "raan_deg": 187.9886,
      "arg_perigee_deg": 168.009,
      "mean_anomaly_deg": 192.1285,
      "mean_motion_rev_day": 15.18785664
    },
    {
      "epoch": "2026-04-24T18:06:17.072064Z",
      "apogee_km": 513.6091813884113,
      "perigee_km": 505.3591887329467,
      "latitude_deg": 3.6316556339726386e-05,
      "longitude_deg": 64.93015849910292,
      "height_km": 516.5320969738766,
      "semi_major_axis_km": 6887.621185060679,
      "eccentricity": 0.0005989,
      "inclination_deg": 97.4286,
      "raan_deg": 189.284,
      "arg_perigee_deg": 163.823,
      "mean_anomaly_deg": 196.3197,
      "mean_motion_rev_day": 15.18794033
    },
    {
      "epoch": "2026-04-25T17:49:22.177920Z",
      "apogee_km": 513.6411364403448,
      "perigee_km": 505.2754631891894,
      "latitude_deg": -5.47097288353085e-05,
      "longitude_deg": 69.15622850058767,
      "height_km": 516.5061535237264,
      "semi_major_axis_km": 6887.595299814767,
      "eccentricity": 0.0006073,
      "inclination_deg": 97.4286,
      "raan_deg": 190.2554,
      "arg_perigee_deg": 161.3018,
      "mean_anomaly_deg": 198.844,
      "mean_motion_rev_day": 15.18802595
    },
    {
      "epoch": "2026-04-26T15:57:34.545024Z",
      "apogee_km": 513.6628357526251,
      "perigee_km": 505.1998050546117,
      "latitude_deg": 3.257677437637767e-05,
      "longitude_deg": 97.10226315308385,
      "height_km": 516.4483944446662,
      "semi_major_axis_km": 6887.568320403618,
      "eccentricity": 0.00061437,
      "inclination_deg": 97.4286,
      "raan_deg": 191.1621,
      "arg_perigee_deg": 158.3085,
      "mean_anomaly_deg": 201.8411,
      "mean_motion_rev_day": 15.18811519
    },
    {
      "epoch": "2026-04-27T10:56:01.897728Z",
      "apogee_km": 513.6830529979798,
      "perigee_km": 505.13698465701873,
      "latitude_deg": -3.398443228620194e-05,
      "longitude_deg": 172.48605738484596,
      "height_km": 516.3964756412608,
      "semi_major_axis_km": 6887.5470188274985,
      "eccentricity": 0.0006204,
      "inclination_deg": 97.4285,
      "raan_deg": 191.9391,
      "arg_perigee_deg": 155.9373,
      "mean_anomaly_deg": 204.2152,
      "mean_motion_rev_day": 15.18818565
    },
    {
      "epoch": "2026-04-28T18:33:27.014112Z",
      "apogee_km": 513.7359081454288,
      "perigee_km": 505.0314595052105,
      "latitude_deg": 1.8043475108459407e-05,
      "longitude_deg": 58.127863146512446,
      "height_km": 516.3059059367507,
      "semi_major_axis_km": 6887.52068382532,
      "eccentricity": 0.0006319,
      "inclination_deg": 97.4285,
      "raan_deg": 193.2343,
      "arg_perigee_deg": 151.875,
      "mean_anomaly_deg": 208.2827,
      "mean_motion_rev_day": 15.18827276
    },
    {
      "epoch": "2026-04-29T04:02:40.402752Z",
      "apogee_km": 513.7469705754029,
      "perigee_km": 505.0050635536227,
      "latitude_deg": -7.338347473308447e-05,
      "longitude_deg": -84.17903019254456,
      "height_km": 516.2702181982739,
      "semi_major_axis_km": 6887.5130170645125,
      "eccentricity": 0.00063462,
      "inclination_deg": 97.4284,
      "raan_deg": 193.6228,
      "arg_perigee_deg": 150.6667,
      "mean_anomaly_deg": 209.4924,
      "mean_motion_rev_day": 15.18829812
    },
    {
      "epoch": "2026-04-30T03:45:43.570656Z",
      "apogee_km": 513.7792152699558,
      "perigee_km": 504.9234205405601,
      "latitude_deg": 3.344877561909629e-05,
      "longitude_deg": -79.94488853570114,
      "height_km": 516.194005075305,
      "semi_major_axis_km": 6887.488317905258,
      "eccentricity": 0.00064289,
      "inclination_deg": 97.4285,
      "raan_deg": 194.5942,
      "arg_perigee_deg": 148.1106,
      "mean_anomaly_deg": 212.0519,
      "mean_motion_rev_day": 15.18837982
    },
    {
      "epoch": "2026-05-02T04:46:40.467072Z",
      "apogee_km": 513.8229556286169,
      "perigee_km": 504.76323008447343,
      "latitude_deg": -1.3160551941337138e-05,
      "longitude_deg": -95.18736063857443,
      "height_km": 515.9554537845287,
      "semi_major_axis_km": 6887.430092856544,
      "eccentricity": 0.0006577,
      "inclination_deg": 97.4282,
      "raan_deg": 196.6018,
      "arg_perigee_deg": 142.2254,
      "mean_anomaly_deg": 217.9443,
      "mean_motion_rev_day": 15.18857242
    },
    {
      "epoch": "2026-05-03T17:08:38.708160Z",
      "apogee_km": 513.8506121437431,
      "perigee_km": 504.66007579994584,
      "latitude_deg": 1.7732806216430542e-05,
      "longitude_deg": 79.31595435675099,
      "height_km": 515.7414255509069,
      "semi_major_axis_km": 6887.392343971844,
      "eccentricity": 0.0006672,
      "inclination_deg": 97.4281,
      "raan_deg": 198.0913,
      "arg_perigee_deg": 137.8187,
      "mean_anomaly_deg": 222.3562,
      "mean_motion_rev_day": 15.18869729
    }
  ]
}